{"type": "FeatureCollection", "features": [ {"type": "Feature", "properties": {"norad_id": 66595, "name": "STARLINK-35711", "group": "last-30-days", "lat": -32.21638174244279, "lon": -21.54899168825038, "alt_km": 446.2947866040886, "timestamp": "2025-12-25T22:42:15.706930+00:00", "meta": {"OBJECT_NAME": "STARLINK-35711", "OBJECT_ID": "2025-270H", "EPOCH": "2025-12-25T18:00:02.000160", "MEAN_MOTION": 15.40642277, "ECCENTRICITY": 0.0001568, "INCLINATION": 43.0006, "RA_OF_ASC_NODE": 117.0332, "ARG_OF_PERICENTER": 281.9852, "MEAN_ANOMALY": 301.0784, "EPHEMERIS_TYPE": 0, "CLASSIFICATION_TYPE": "U", "NORAD_CAT_ID": 66595, "ELEMENT_SET_NO": 999, "REV_AT_EPOCH": 611, "BSTAR": 0.0021781, "MEAN_MOTION_DOT": 0.00091603, "MEAN_MOTION_DDOT": 0}, "tle": {"line1": "1 66595U 25270H   25359.75002315  .00091603  00000+0  21781-2 0  9993", "line2": "2 66595  43.0006 117.0332 0001568 281.9852 301.0784 15.40642277  6117"}}, "geometry": {"type": "Point", "coordinates": [-21.54899168825038, -32.21638174244279]}}, {"type": "Feature", "properties": {"norad_id": 66596, "name": "STARLINK-35811", "group": "last-30-days", "lat": -38.90774647550774, "lon": 56.61094296683358, "alt_km": 446.7286860701097, "timestamp": "2025-12-25T22:42:15.706940+00:00", "meta": {"OBJECT_NAME": "STARLINK-35811", "OBJECT_ID": "2025-270J", "EPOCH": "2025-12-25T15:12:55.235232", "MEAN_MOTION": 15.40706261, "ECCENTRICITY": 8.16e-05, "INCLINATION": 42.9999, "RA_OF_ASC_NODE": 118.4238, "ARG_OF_PERICENTER": 242.406, "MEAN_ANOMALY": 117.6713, "EPHEMERIS_TYPE": 0, "CLASSIFICATION_TYPE": "U", "NORAD_CAT_ID": 66596, "ELEMENT_SET_NO": 999, "REV_AT_EPOCH": 644, "BSTAR": 0.0016636, "MEAN_MOTION_DOT": 0.00069844, "MEAN_MOTION_DDOT": 0}, "tle": {"line1": "1 66596U 25270J   25359.63397263  .00069844  00000+0  16636-2 0  9995", "line2": "2 66596  42.9999 118.4238 0000816 242.4060 117.6713 15.40706261  6448"}}, "geometry": {"type": "Point", "coordinates": [56.61094296683358, -38.90774647550774]}}, {"type": "Feature", "properties": {"norad_id": 66597, "name": "STARLINK-35820", "group": "last-30-days", "lat": -11.770844801994869, "lon": 103.58381587649788, "alt_km": 444.4095500655985, "timestamp": "2025-12-25T22:42:15.706951+00:00", "meta": {"OBJECT_NAME": "STARLINK-35820", "OBJECT_ID": "2025-270K", "EPOCH": "2025-12-25T16:33:22.358304", "MEAN_MOTION": 15.40716379, "ECCENTRICITY": 0.0001971, "INCLINATION": 43.0011, "RA_OF_ASC_NODE": 117.9816, "ARG_OF_PERICENTER": 279.5026, "MEAN_ANOMALY": 80.5608, "EPHEMERIS_TYPE": 0, "CLASSIFICATION_TYPE": "U", "NORAD_CAT_ID": 66597, "ELEMENT_SET_NO": 999, "REV_AT_EPOCH": 645, "BSTAR": 0.0017144, "MEAN_MOTION_DOT": 0.00072033, "MEAN_MOTION_DDOT": 0}, "tle": {"line1": "1 66597U 25270K   25359.68984211  .00072033  00000+0  17144-2 0  9995", "line2": "2 66597  43.0011 117.9816 0001971 279.5026  80.5608 15.40716379  6451"}}, "geometry": {"type": "Point", "coordinates": [103.58381587649788, -11.770844801994869]}}, {"type": "Feature", "properties": {"norad_id": 66598, "name": "STARLINK-35981", "group": "last-30-days", "lat": 39.7670318985594, "lon": 179.5573285442245, "alt_km": 438.18586704163226, "timestamp": "2025-12-25T22:42:15.706960+00:00", "meta": {"OBJECT_NAME": "STARLINK-35981", "OBJECT_ID": "2025-270L", "EPOCH": "2025-12-25T14:37:26.403168", "MEAN_MOTION": 15.4075353, "ECCENTRICITY": 0.0001255, "INCLINATION": 42.9985, "RA_OF_ASC_NODE": 118.2329, "ARG_OF_PERICENTER": 277.5792, "MEAN_ANOMALY": 82.4921, "EPHEMERIS_TYPE": 0, "CLASSIFICATION_TYPE": "U", "NORAD_CAT_ID": 66598, "ELEMENT_SET_NO": 999, "REV_AT_EPOCH": 618, "BSTAR": 0.0013375, "MEAN_MOTION_DOT": 0.00056078, "MEAN_MOTION_DDOT": 0}, "tle": {"line1": "1 66598U 25270L   25359.60933337  .00056078  00000+0  13375-2 0  9994", "line2": "2 66598  42.9985 118.2329 0001255 277.5792  82.4921 15.40753530  6185"}}, "geometry": {"type": "Point", "coordinates": [179.5573285442245, 39.7670318985594]}}, {"type": "Feature", "properties": {"norad_id": 66599, "name": "STARLINK-35930", "group": "last-30-days", "lat": -17.772156375599053, "lon": -43.91766339083322, "alt_km": 445.4483837903326, "timestamp": "2025-12-25T22:42:15.706970+00:00", "meta": {"OBJECT_NAME": "STARLINK-35930", "OBJECT_ID": "2025-270M", "EPOCH": "2025-12-25T18:00:02.000160", "MEAN_MOTION": 15.4063693, "ECCENTRICITY": 0.0001399, "INCLINATION": 43.0006, "RA_OF_ASC_NODE": 117.0935, "ARG_OF_PERICENTER": 268.2766, "MEAN_ANOMALY": 289.9228, "EPHEMERIS_TYPE": 0, "CLASSIFICATION_TYPE": "U", "NORAD_CAT_ID": 66599, "ELEMENT_SET_NO": 999, "REV_AT_EPOCH": 611, "BSTAR": 0.0021949, "MEAN_MOTION_DOT": 0.00092305, "MEAN_MOTION_DDOT": 0}, "tle": {"line1": "1 66599U 25270M   25359.75002315  .00092305  00000+0  21949-2 0  9993", "line2": "2 66599  43.0006 117.0935 0001399 268.2766 289.9228 15.40636930  6110"}}, "geometry": {"type": "Point", "coordinates": [-43.91766339083322, -17.772156375599053]}}, {"type": "Feature", "properties": {"norad_id": 66600, "name": "STARLINK-35980", "group": "last-30-days", "lat": 36.38454412255837, "lon": -116.07975170547198, "alt_km": 438.36945293828194, "timestamp": "2025-12-25T22:42:15.706982+00:00", "meta": {"OBJECT_NAME": "STARLINK-35980", "OBJECT_ID": "2025-270N", "EPOCH": "2025-12-25T17:31:15.222720", "MEAN_MOTION": 15.4074017, "ECCENTRICITY": 0.0001204, "INCLINATION": 43.0006, "RA_OF_ASC_NODE": 117.4177, "ARG_OF_PERICENTER": 6.8495, "MEAN_ANOMALY": 353.2378, "EPHEMERIS_TYPE": 0, "CLASSIFICATION_TYPE": "U", "NORAD_CAT_ID": 66600, "ELEMENT_SET_NO": 999, "REV_AT_EPOCH": 625, "BSTAR": 0.0010972, "MEAN_MOTION_DOT": 0.00045867, "MEAN_MOTION_DDOT": 0}, "tle": {"line1": "1 66600U 25270N   25359.73003730  .00045867  00000+0  10972-2 0  9991", "line2": "2 66600  43.0006 117.4177 0001204   6.8495 353.2378 15.40740170  6253"}}, "geometry": {"type": "Point", "coordinates": [-116.07975170547198, 36.38454412255837]}}, {"type": "Feature", "properties": {"norad_id": 66601, "name": "STARLINK-35978", "group": "last-30-days", "lat": 13.424269806891735, "lon": 131.25437470926096, "alt_km": 441.97499057659206, "timestamp": "2025-12-25T22:42:15.706993+00:00", "meta": {"OBJECT_NAME": "STARLINK-35978", "OBJECT_ID": "2025-270P", "EPOCH": "2025-12-25T14:50:20.458176", "MEAN_MOTION": 15.40695695, "ECCENTRICITY": 0.0001748, "INCLINATION": 43.0008, "RA_OF_ASC_NODE": 118.3029, "ARG_OF_PERICENTER": 278.7511, "MEAN_ANOMALY": 81.3147, "EPHEMERIS_TYPE": 0, "CLASSIFICATION_TYPE": "U", "NORAD_CAT_ID": 66601, "ELEMENT_SET_NO": 999, "REV_AT_EPOCH": 617, "BSTAR": 0.0016425, "MEAN_MOTION_DOT": 0.00068921, "MEAN_MOTION_DDOT": 0}, "tle": {"line1": "1 66601U 25270P   25359.61829234  .00068921  00000+0  16425-2 0  9999", "line2": "2 66601  43.0008 118.3029 0001748 278.7511  81.3147 15.40695695  6179"}}, "geometry": {"type": "Point", "coordinates": [131.25437470926096, 13.424269806891735]}}, {"type": "Feature", "properties": {"norad_id": 66602, "name": "STARLINK-36050", "group": "last-30-days", "lat": -33.812388396036916, "lon": 70.64702465330093, "alt_km": 446.0096702240471, "timestamp": "2025-12-25T22:42:15.707003+00:00", "meta": {"OBJECT_NAME": "STARLINK-36050", "OBJECT_ID": "2025-270Q", "EPOCH": "2025-12-25T16:43:02.809056", "MEAN_MOTION": 15.40700977, "ECCENTRICITY": 0.0001645, "INCLINATION": 43.0015, "RA_OF_ASC_NODE": 118.0318, "ARG_OF_PERICENTER": 265.3837, "MEAN_ANOMALY": 94.6831, "EPHEMERIS_TYPE": 0, "CLASSIFICATION_TYPE": "U", "NORAD_CAT_ID": 66602, "ELEMENT_SET_NO": 999, "REV_AT_EPOCH": 624, "BSTAR": 0.001407, "MEAN_MOTION_DOT": 0.00058929, "MEAN_MOTION_DDOT": 0}, "tle": {"line1": "1 66602U 25270Q   25359.69656029  .00058929  00000+0  14070-2 0  9999", "line2": "2 66602  43.0015 118.0318 0001645 265.3837  94.6831 15.40700977  6240"}}, "geometry": {"type": "Point", "coordinates": [70.64702465330093, -33.812388396036916]}}, {"type": "Feature", "properties": {"norad_id": 66603, "name": "STARLINK-36048", "group": "last-30-days", "lat": 34.97694543790519, "lon": 164.98137603625207, "alt_km": 439.14531899496524, "timestamp": "2025-12-25T22:42:15.707012+00:00", "meta": {"OBJECT_NAME": "STARLINK-36048", "OBJECT_ID": "2025-270R", "EPOCH": "2025-12-25T17:47:22.397280", "MEAN_MOTION": 15.40700438, "ECCENTRICITY": 0.0001458, "INCLINATION": 42.9995, "RA_OF_ASC_NODE": 117.5035, "ARG_OF_PERICENTER": 277.8651, "MEAN_ANOMALY": 82.204, "EPHEMERIS_TYPE": 0, "CLASSIFICATION_TYPE": "U", "NORAD_CAT_ID": 66603, "ELEMENT_SET_NO": 999, "REV_AT_EPOCH": 625, "BSTAR": 0.0012829, "MEAN_MOTION_DOT": 0.00053664, "MEAN_MOTION_DDOT": 0}, "tle": {"line1": "1 66603U 25270R   25359.74123145  .00053664  00000+0  12829-2 0  9995", "line2": "2 66603  42.9995 117.5035 0001458 277.8651  82.2040 15.40700438  6258"}}, "geometry": {"type": "Point", "coordinates": [164.98137603625207, 34.97694543790519]}}, {"type": "Feature", "properties": {"norad_id": 66604, "name": "STARLINK-35977", "group": "last-30-days", "lat": 42.483117321971946, "lon": -164.39702311626337, "alt_km": 437.8983193234699, "timestamp": "2025-12-25T22:42:15.707023+00:00", "meta": {"OBJECT_NAME": "STARLINK-35977", "OBJECT_ID": "2025-270S", "EPOCH": "2025-12-25T14:34:12.556128", "MEAN_MOTION": 15.40692827, "ECCENTRICITY": 0.0001025, "INCLINATION": 43.0004, "RA_OF_ASC_NODE": 118.2151, "ARG_OF_PERICENTER": 242.851, "MEAN_ANOMALY": 117.2242, "EPHEMERIS_TYPE": 0, "CLASSIFICATION_TYPE": "U", "NORAD_CAT_ID": 66604, "ELEMENT_SET_NO": 999, "REV_AT_EPOCH": 633, "BSTAR": 0.0010442, "MEAN_MOTION_DOT": 0.00043554, "MEAN_MOTION_DDOT": 0}, "tle": {"line1": "1 66604U 25270S   25359.60708977  .00043554  00000+0  10442-2 0  9999", "line2": "2 66604  43.0004 118.2151 0001025 242.8510 117.2242 15.40692827  6339"}}, "geometry": {"type": "Point", "coordinates": [-164.39702311626337, 42.483117321971946]}}]}